{
  "type": "FeatureCollection",
  "features": [
    {
      "type": "Feature",
      "properties": {
        "norad_id": 33612,
        "name": "FENGYUN 1C DEB",
        "group": "fengyun-1c-debris",
        "lat": 13.272428810703875,
        "lon": -51.57740461490201,
        "alt_km": 909.300303551815,
        "timestamp": "2025-12-06T22:38:43.014808+00:00",
        "meta_object_name": "FENGYUN 1C DEB",
        "meta_object_id": "1999-025DCV",
        "meta_epoch": "2025-12-02T09:07:04.428768",
        "meta_mean_motion": 14.03995627,
        "meta_eccentricity": 0.0111082,
        "meta_inclination": 98.599,
        "meta_ra_of_asc_node": 306.1484,
        "meta_arg_of_pericenter": 137.5735,
        "meta_mean_anomaly": 223.4087,
        "meta_ephemeris_type": 0,
        "meta_classification_type": "U",
        "meta_norad_cat_id": 33612,
        "meta_element_set_no": 999,
        "meta_rev_at_epoch": 56528,
        "meta_bstar": 0.0015686766,
        "meta_mean_motion_dot": 2.58e-05,
        "meta_mean_motion_ddot": 0,
        "tle_line1": "1 33612U 99025DCV 25336.37991237  .00002580  00000+0  15687-2 0  9993",
        "tle_line2": "2 33612  98.5990 306.1484 0111082 137.5735 223.4087 14.03995627565285"
      },
      "geometry": {
        "type": "Point",
        "coordinates": [
          -51.57740461490201,
          13.272428810703875
        ]
      }
    },
    {
      "type": "Feature",
      "properties": {
        "norad_id": 33613,
        "name": "FENGYUN 1C DEB",
        "group": "fengyun-1c-debris",
        "lat": -81.17623716673396,
        "lon": 133.1069220585239,
        "alt_km": 810.4377095799,
        "timestamp": "2025-12-06T22:38:43.014818+00:00",
        "meta_object_name": "FENGYUN 1C DEB",
        "meta_object_id": "1999-025DCW",
        "meta_epoch": "2025-12-01T22:24:29.722176",
        "meta_mean_motion": 14.33006622,
        "meta_eccentricity": 0.0031114,
        "meta_inclination": 98.6985,
        "meta_ra_of_asc_node": 47.6008,
        "meta_arg_of_pericenter": 119.831,
        "meta_mean_anomaly": 240.5972,
        "meta_ephemeris_type": 0,
        "meta_classification_type": "U",
        "meta_norad_cat_id": 33613,
        "meta_element_set_no": 999,
        "meta_rev_at_epoch": 64355,
        "meta_bstar": 0.0025062748,
        "meta_mean_motion_dot": 6.859e-05,
        "meta_mean_motion_ddot": 0,
        "tle_line1": "1 33613U 99025DCW 25335.93367734  .00006859  00000+0  25063-2 0  9996",
        "tle_line2": "2 33613  98.6985  47.6008 0031114 119.8310 240.5972 14.33006622643550"
      },
      "geometry": {
        "type": "Point",
        "coordinates": [
          133.1069220585239,
          -81.17623716673396
        ]
      }
    },
    {
      "type": "Feature",
      "properties": {
        "norad_id": 33618,
        "name": "FENGYUN 1C DEB",
        "group": "fengyun-1c-debris",
        "lat": -78.15537807006623,
        "lon": 113.79784686797096,
        "alt_km": 750.752149147731,
        "timestamp": "2025-12-06T22:38:43.014828+00:00",
        "meta_object_name": "FENGYUN 1C DEB",
        "meta_object_id": "1999-025DDB",
        "meta_epoch": "2025-12-05T10:53:35.028096",
        "meta_mean_motion": 14.61996903,
        "meta_eccentricity": 0.01652537,
        "meta_inclination": 98.5316,
        "meta_ra_of_asc_node": 66.5534,
        "meta_arg_of_pericenter": 162.9266,
        "meta_mean_anomaly": 197.7588,
        "meta_ephemeris_type": 0,
        "meta_classification_type": "U",
        "meta_norad_cat_id": 33618,
        "meta_element_set_no": 999,
        "meta_rev_at_epoch": 96677,
        "meta_bstar": 0.0020196923,
        "meta_mean_motion_dot": 0.00012275,
        "meta_mean_motion_ddot": 0,
        "tle_line1": "1 33618U 99025DDB 25339.45387764  .00012275  00000+0  20197-2 0  9999",
        "tle_line2": "2 33618  98.5316  66.5534 0165253 162.9266 197.7588 14.61996903966776"
      },
      "geometry": {
        "type": "Point",
        "coordinates": [
          113.79784686797096,
          -78.15537807006623
        ]
      }
    },
    {
      "type": "Feature",
      "properties": {
        "norad_id": 33619,
        "name": "FENGYUN 1C DEB",
        "group": "fengyun-1c-debris",
        "lat": 3.1528366804594254,
        "lon": 49.86693703686512,
        "alt_km": 817.5906207899661,
        "timestamp": "2025-12-06T22:38:43.014838+00:00",
        "meta_object_name": "FENGYUN 1C DEB",
        "meta_object_id": "1999-025DDC",
        "meta_epoch": "2025-12-05T22:54:45.846720",
        "meta_mean_motion": 14.17453989,
        "meta_eccentricity": 0.00512537,
        "meta_inclination": 98.863,
        "meta_ra_of_asc_node": 49.3734,
        "meta_arg_of_pericenter": 65.7457,
        "meta_mean_anomaly": 294.906,
        "meta_ephemeris_type": 0,
        "meta_classification_type": "U",
        "meta_norad_cat_id": 33619,
        "meta_element_set_no": 999,
        "meta_rev_at_epoch": 63528,
        "meta_bstar": 0.0022825908,
        "meta_mean_motion_dot": 4.645e-05,
        "meta_mean_motion_ddot": 0,
        "tle_line1": "1 33619U 99025DDC 25339.95469730  .00004645  00000+0  22826-2 0  9992",
        "tle_line2": "2 33619  98.8630  49.3734 0051253  65.7457 294.9060 14.17453989635283"
      },
      "geometry": {
        "type": "Point",
        "coordinates": [
          49.86693703686512,
          3.1528366804594254
        ]
      }
    },
    {
      "type": "Feature",
      "properties": {
        "norad_id": 33621,
        "name": "FENGYUN 1C DEB",
        "group": "fengyun-1c-debris",
        "lat": -46.47222332393943,
        "lon": 3.4863349425814594,
        "alt_km": 808.526459002288,
        "timestamp": "2025-12-06T22:38:43.014852+00:00",
        "meta_object_name": "FENGYUN 1C DEB",
        "meta_object_id": "1999-025DDE",
        "meta_epoch": "2025-11-24T20:15:43.256160",
        "meta_mean_motion": 14.19392117,
        "meta_eccentricity": 0.0285764,
        "meta_inclination": 98.141,
        "meta_ra_of_asc_node": 181.012,
        "meta_arg_of_pericenter": 346.9455,
        "meta_mean_anomaly": 12.4433,
        "meta_ephemeris_type": 0,
        "meta_classification_type": "U",
        "meta_norad_cat_id": 33621,
        "meta_element_set_no": 999,
        "meta_rev_at_epoch": 63990,
        "meta_bstar": 0.00068783,
        "meta_mean_motion_dot": 2.13e-05,
        "meta_mean_motion_ddot": 0,
        "tle_line1": "1 33621U 99025DDE 25328.84425065  .00002130  00000+0  68783-3 0  9994",
        "tle_line2": "2 33621  98.1410 181.0120 0285764 346.9455  12.4433 14.19392117639903"
      },
      "geometry": {
        "type": "Point",
        "coordinates": [
          3.4863349425814594,
          -46.47222332393943
        ]
      }
    },
    {
      "type": "Feature",
      "properties": {
        "norad_id": 33625,
        "name": "FENGYUN 1C DEB",
        "group": "fengyun-1c-debris",
        "lat": -32.16281325154677,
        "lon": 96.82728502173696,
        "alt_km": 856.323944806777,
        "timestamp": "2025-12-06T22:38:43.014863+00:00",
        "meta_object_name": "FENGYUN 1C DEB",
        "meta_object_id": "1999-025DDJ",
        "meta_epoch": "2025-12-01T01:24:31.444992",
        "meta_mean_motion": 14.60592393,
        "meta_eccentricity": 0.02269611,
        "meta_inclination": 98.6203,
        "meta_ra_of_asc_node": 85.2252,
        "meta_arg_of_pericenter": 171.2387,
        "meta_mean_anomaly": 189.288,
        "meta_ephemeris_type": 0,
        "meta_classification_type": "U",
        "meta_norad_cat_id": 33625,
        "meta_element_set_no": 999,
        "meta_rev_at_epoch": 61220,
        "meta_bstar": 0.0017865562,
        "meta_mean_motion_dot": 0.00012473,
        "meta_mean_motion_ddot": 0,
        "tle_line1": "1 33625U 99025DDJ 25335.05869728  .00012473  00000+0  17866-2 0  9993",
        "tle_line2": "2 33625  98.6203  85.2252 0226961 171.2387 189.2880 14.60592393612207"
      },
      "geometry": {
        "type": "Point",
        "coordinates": [
          96.82728502173696,
          -32.16281325154677
        ]
      }
    },
    {
      "type": "Feature",
      "properties": {
        "norad_id": 33630,
        "name": "FENGYUN 1C DEB",
        "group": "fengyun-1c-debris",
        "lat": -58.23822429086751,
        "lon": 101.4862211725653,
        "alt_km": 918.818959975104,
        "timestamp": "2025-12-06T22:38:43.014873+00:00",
        "meta_object_name": "FENGYUN 1C DEB",
        "meta_object_id": "1999-025DDP",
        "meta_epoch": "2025-12-05T13:03:03.290976",
        "meta_mean_motion": 14.17702204,
        "meta_eccentricity": 0.01355763,
        "meta_inclination": 98.6169,
        "meta_ra_of_asc_node": 85.9506,
        "meta_arg_of_pericenter": 88.759,
        "meta_mean_anomaly": 272.9114,
        "meta_ephemeris_type": 0,
        "meta_classification_type": "U",
        "meta_norad_cat_id": 33630,
        "meta_element_set_no": 999,
        "meta_rev_at_epoch": 64309,
        "meta_bstar": 0.00069962399,
        "meta_mean_motion_dot": 1.519e-05,
        "meta_mean_motion_ddot": 0,
        "tle_line1": "1 33630U 99025DDP 25339.54378809  .00001519  00000+0  69962-3 0  9996",
        "tle_line2": "2 33630  98.6169  85.9506 0135576  88.7590 272.9114 14.17702204643099"
      },
      "geometry": {
        "type": "Point",
        "coordinates": [
          101.4862211725653,
          -58.23822429086751
        ]
      }
    }
  ]
}